{
    "links": {
        "self": "http://www.neowsapp.com/rest/v1/neo/3314049?api_key=iIulBulltgU6a56xZRHN4H3l9WmuAYTsLGpBGhQ2"
    },
    "id": "3314049",
    "neo_reference_id": "3314049",
    "name": "(2006 BL55)",
    "designation": "2006 BL55",
    "nasa_jpl_url": "http://ssd.jpl.nasa.gov/sbdb.cgi?sstr=3314049",
    "absolute_magnitude_h": 24.3,
    "estimated_diameter": {
        "kilometers": {
            "estimated_diameter_min": 0.0366906138,
            "estimated_diameter_max": 0.0820427065
        },
        "meters": {
            "estimated_diameter_min": 36.6906137531,
            "estimated_diameter_max": 82.0427064882
        },
        "miles": {
            "estimated_diameter_min": 0.0227984834,
            "estimated_diameter_max": 0.0509789586
        },
        "feet": {
            "estimated_diameter_min": 120.3760332259,
            "estimated_diameter_max": 269.1689931548
        }
    },
    "is_potentially_hazardous_asteroid": false,
    "close_approach_data": [
        {
            "close_approach_date": "2006-01-29",
            "close_approach_date_full": "2006-Jan-29 19:34",
            "epoch_date_close_approach": 1138563240000,
            "relative_velocity": {
                "kilometers_per_second": "6.6229563554",
                "kilometers_per_hour": "23842.6428793431",
                "miles_per_hour": "14814.891071334"
            },
            "miss_distance": {
                "astronomical": "0.0781454027",
                "lunar": "30.3985616503",
                "kilometers": "11690385.794212249",
                "miles": "7264068.8931730762"
            },
            "orbiting_body": "Earth"
        }
    ],
    "orbital_data": {
        "orbit_id": "7",
        "orbit_determination_date": "2017-04-06 09:09:14",
        "first_observation_date": "2006-01-26",
        "last_observation_date": "2006-02-02",
        "data_arc_in_days": 7,
        "observations_used": 25,
        "orbit_uncertainty": "8",
        "minimum_orbit_intersection": ".0276862",
        "jupiter_tisserand_invariant": "4.564",
        "epoch_osculation": "2453764.5",
        "eccentricity": ".3121874508133624",
        "semi_major_axis": "1.461749337298832",
        "inclination": "3.902401459890646",
        "ascending_node_longitude": "130.8534935576665",
        "orbital_period": "645.5171504024296",
        "perihelion_distance": "1.005409537959388",
        "perihelion_argument": "25.0654181690978",
        "aphelion_distance": "1.918089136638276",
        "perihelion_time": "2453785.525682739777",
        "mean_anomaly": "348.2741368194464",
        "mean_motion": ".5576923862914689",
        "equinox": "J2000",
        "orbit_class": {
            "orbit_class_type": "APO",
            "orbit_class_description": "Near-Earth asteroid orbits which cross the Earth’s orbit similar to that of 1862 Apollo",
            "orbit_class_range": "a (semi-major axis) > 1.0 AU; q (perihelion) < 1.017 AU"
        }
    },
    "is_sentry_object": false
}